NORAD_CAT_ID,OBJECT_NAME,OBJECT_TYPE,EPOCH,MEAN_MOTION,ECCENTRICITY,INCLINATION,RA_OF_ASC_NODE,ARG_OF_PERICENTER,MEAN_ANOMALY,BSTAR,MEAN_MOTION_DOT,MEAN_MOTION_DDOT,TLE_LINE0,TLE_LINE1,TLE_LINE2,SEMIMAJOR_AXIS,PERIOD,APOGEE,PERIGEE,DECAYED
51863.0,STARLINK-3555,PAYLOAD,2023-05-07 22:00:12,15.08839479,0.0001115,53.2162,343.3747,84.5067,275.6052,0.00018336,2.632e-05,0.0,0 STARLINK-3555,1 51863U 22022M   23127.91680939  .00002632  00000-0  18336-3 0  9998,2 51863  53.2162 343.3747 0001115  84.5067 275.6052 15.08839479 66590,6917.882,95.438,540.518,538.976,0.0
51863.0,STARLINK-3555,PAYLOAD,2023-05-08 21:50:59,15.08857687,0.0001172,53.2159,338.9142,87.566,272.5466,0.00082326,0.00012845,0.0,0 STARLINK-3555,1 51863U 22022M   23128.91040696  .00012845  00000-0  82326-3 0  9996,2 51863  53.2159 338.9142 0001172  87.5660 272.5466 15.08857687 66743,6917.826,95.436,540.502,538.881,0.0
51863.0,STARLINK-3555,PAYLOAD,2023-05-09 01:01:45,15.08865371,0.0001207,53.216,338.3182,91.2322,268.8809,0.00097749,0.00015314,0.0,0 STARLINK-3555,1 51863U 22022M   23129.04288415  .00015314  00000-0  97749-3 0  9993,2 51863  53.2160 338.3182 0001207  91.2322 268.8809 15.08865371 66769,6917.803,95.436,540.503,538.833,0.0
51863.0,STARLINK-3555,PAYLOAD,2023-05-09 23:17:09,15.08848976,0.0001147,53.2161,334.1559,69.603,290.5085,0.00064083,9.928e-05,0.0,0 STARLINK-3555,1 51863U 22022M   23129.97024916  .00009928  00000-0  64083-3 0  9998,2 51863  53.2161 334.1559 0001147  69.6030 290.5085 15.08848976 66906,6917.853,95.437,540.511,538.924,0.0
51863.0,STARLINK-3555,PAYLOAD,2023-05-10 19:57:10,15.08847744,0.0001077,53.2164,330.2892,81.2957,278.8157,0.0011643,0.00018294,0.0,0 STARLINK-3555,1 51863U 22022M   23130.83137109  .00018294  00000-0  11643-2 0  9993,2 51863  53.2164 330.2892 0001077  81.2957 278.8157 15.08847744 67032,6917.857,95.437,540.467,538.977,0.0
51863.0,STARLINK-3555,PAYLOAD,2023-05-10 23:07:56,15.08856878,0.0001153,53.2166,329.6954,75.0993,285.0126,0.0013842,0.0002182,0.0,0 STARLINK-3555,1 51863U 22022M   23130.96384973  .00021820  00000-0  13842-2 0  9992,2 51863  53.2166 329.6954 0001153  75.0993 285.0126 15.08856878 67057,6917.829,95.436,540.491,538.896,0.0
51863.0,STARLINK-3555,PAYLOAD,2023-05-11 19:47:57,15.0884571,0.0001046,53.2167,325.8302,83.7823,276.3288,0.00071171,0.00011059,0.0,0 STARLINK-3555,1 51863U 22022M   23131.82497147  .00011059  00000-0  71171-3 0  9999,2 51863  53.2167 325.8302 0001046  83.7823 276.3288 15.08845710 67181,6917.863,95.437,540.452,539.004,0.0
51863.0,STARLINK-3555,PAYLOAD,2023-05-12 05:20:16,15.08838207,9.73e-05,53.2165,324.0463,84.1413,275.969,0.00024044,3.541e-05,0.0,0 STARLINK-3555,1 51863U 22022M   23132.22241286  .00003541  00000-0  24044-3 0  9999,2 51863  53.2165 324.0463 0000973  84.1413 275.9690 15.08838207 67248,6917.886,95.438,540.424,539.078,0.0
51863.0,STARLINK-3555,PAYLOAD,2023-05-12 18:03:21,15.08840979,0.0001022,53.2163,321.6674,81.7964,278.3144,0.00014361,1.999e-05,0.0,0 STARLINK-3555,1 51863U 22022M   23132.75233358  .00001999  00000-0  14361-3 0  9994,2 51863  53.2163 321.6674 0001022  81.7964 278.3144 15.08840979 67322,6917.877,95.437,540.449,539.035,0.0
51863.0,STARLINK-3555,PAYLOAD,2023-05-13 05:11:03,15.0884813,9.99e-05,53.2161,319.5861,85.3096,274.801,0.0003,4.491e-05,0.0,0 STARLINK-3555,1 51863U 22022M   23133.21601049  .00004491  00000-0  30000-3 0  9990,2 51863  53.2161 319.5861 0000999  85.3096 274.8010 15.08848130 67399,6917.856,95.437,540.412,539.029,0.0
51863.0,STARLINK-3555,PAYLOAD,2023-05-13 19:29:31,15.08841346,0.0001019,53.2158,316.9101,95.5946,264.5163,7.6655e-05,9.32e-06,0.0,0 STARLINK-3555,1 51863U 22022M   23133.81217193  .00000932  00000-0  76655-4 0  9992,2 51863  53.2158 316.9101 0001019  95.5946 264.5163 15.08841346 67481,6917.876,95.437,540.446,539.036,0.0
51863.0,STARLINK-3555,PAYLOAD,2023-05-14 05:01:50,15.0884246,0.0001021,53.2156,315.1259,94.2777,265.8331,0.00011283,1.508e-05,0.0,0 STARLINK-3555,1 51863U 22022M   23134.20961120  .00001508  00000-0  11283-3 0  9997,2 51863  53.2156 315.1259 0001021  94.2777 265.8331 15.08842460 67541,6917.873,95.437,540.444,539.032,0.0
51863.0,STARLINK-3555,PAYLOAD,2023-05-14 20:55:43,15.08786813,0.00014,53.2169,312.1524,89.2507,270.8646,0.00099687,0.0001559,0.0,0 STARLINK-3555,1 51863U 22022M   23134.87202663  .00015590  00000-0  99687-3 0  9990,2 51863  53.2169 312.1524 0001400  89.2507 270.8646 15.08786813 67648,6918.043,95.441,540.876,538.939,0.0
51863.0,STARLINK-3555,PAYLOAD,2023-05-15 04:52:37,15.08844894,0.0001102,53.2176,310.6634,78.6084,281.5032,5.6949e-05,6.19e-06,0.0,0 STARLINK-3555,1 51863U 22022M   23135.20321097  .00000619  00000-0  56949-4 0  9992,2 51863  53.2176 310.6634 0001102  78.6084 281.5032 15.08844894 67699,6917.865,95.437,540.493,538.968,0.0
51863.0,STARLINK-3555,PAYLOAD,2023-05-15 17:35:43,15.08833931,0.0001284,53.218,308.2878,84.2195,275.8943,2.3162e-05,8.1e-07,0.0,0 STARLINK-3555,1 51863U 22022M   23135.73314044  .00000081  00000-0  23162-4 0  9998,2 51863  53.2180 308.2878 0001284  84.2195 275.8943 15.08833931 67770,6917.899,95.438,540.652,538.876,0.0
51863.0,STARLINK-3555,PAYLOAD,2023-05-16 04:43:25,15.08837287,0.0001065,53.2168,306.2048,83.1379,276.9734,3.6286e-05,2.9e-06,0.0,0 STARLINK-3555,1 51863U 22022M   23136.19681889  .00000290  00000-0  36286-4 0  9996,2 51863  53.2168 306.2048 0001065  83.1379 276.9734 15.08837287 67848,6917.889,95.438,540.49,539.017,0.0
51863.0,STARLINK-3555,PAYLOAD,2023-05-16 17:26:30,15.08837527,0.0001068,53.217,303.8253,82.456,277.6553,5.6344e-05,6.09e-06,0.0,0 STARLINK-3555,1 51863U 22022M   23136.72673929  .00000609  00000-0  56344-4 0  9992,2 51863  53.2170 303.8253 0001068  82.4560 277.6553 15.08837527 67922,6917.888,95.438,540.492,539.014,0.0
51863.0,STARLINK-3555,PAYLOAD,2023-05-17 04:34:11,15.08844783,0.0001025,53.2165,301.7446,82.9852,277.1257,2.8696e-05,1.69e-06,0.0,0 STARLINK-3555,1 51863U 22022M   23137.19041480  .00000169  00000-0  28696-4 0  9995,2 51863  53.2165 301.7446 0001025  82.9852 277.1257 15.08844783 67994,6917.866,95.437,540.44,539.022,0.0
51863.0,STARLINK-3555,PAYLOAD,2023-05-17 17:17:17,15.08840378,0.0001066,53.2179,299.3631,90.8624,269.249,0.00015612,2.198e-05,0.0,0 STARLINK-3555,1 51863U 22022M   23137.72033632  .00002198  00000-0  15612-3 0  9991,2 51863  53.2179 299.3631 0001066  90.8624 269.2490 15.08840378 68074,6917.879,95.438,540.482,539.007,0.0
51863.0,STARLINK-3555,PAYLOAD,2023-05-18 10:46:32,15.08826836,0.0001057,53.2186,296.0923,93.05,267.0613,0.00023211,3.407e-05,0.0,0 STARLINK-3555,1 51863U 22022M   23138.44898403  .00003407  00000-0  23211-3 0  9994,2 51863  53.2186 296.0923 0001057  93.0500 267.0613 15.08826836 68186,6917.921,95.438,540.517,539.054,0.0
51863.0,STARLINK-3555,PAYLOAD,2023-05-18 21:54:13,15.08844654,0.0001071,53.2184,294.0118,89.7222,270.3893,9.7252e-05,1.26e-05,0.0,0 STARLINK-3555,1 51863U 22022M   23138.91265534  .00001260  00000-0  97252-4 0  9991,2 51863  53.2184 294.0118 0001071  89.7222 270.3893 15.08844654 68250,6917.866,95.437,540.472,538.99,0.0
51863.0,STARLINK-3555,PAYLOAD,2023-05-19 10:37:19,15.08838159,0.0001226,53.2174,291.6325,92.4458,267.6675,3.9471e-05,3.4e-06,0.0,0 STARLINK-3555,1 51863U 22022M   23139.44258121  .00000340  00000-0  39471-4 0  9991,2 51863  53.2174 291.6325 0001226  92.4458 267.6675 15.08838159 68335,6917.886,95.438,540.599,538.903,0.0
51863.0,STARLINK-3555,PAYLOAD,2023-05-19 16:58:51,15.08843712,0.0001082,53.2162,290.4447,87.4258,272.6858,7.5178e-05,9.09e-06,0.0,0 STARLINK-3555,1 51863U 22022M   23139.70753642  .00000909  00000-0  75178-4 0  9993,2 51863  53.2162 290.4447 0001082  87.4258 272.6858 15.08843712 68370,6917.869,95.437,540.483,538.986,0.0
51863.0,STARLINK-3555,PAYLOAD,2023-05-20 16:49:37,15.08852275,9.89e-05,53.219,285.9892,92.9626,267.1479,0.00010398,1.368e-05,0.0,0 STARLINK-3555,1 51863U 22022M   23140.70113095  .00001368  00000-0  10398-3 0  9999,2 51863  53.2190 285.9892 0000989  92.9626 267.1479 15.08852275 68528,6917.843,95.437,540.392,539.024,0.0
51863.0,STARLINK-3555,PAYLOAD,2023-05-21 02:21:56,15.08845469,9.43e-05,53.2164,284.1985,82.666,277.444,0.00014908,2.086e-05,0.0,0 STARLINK-3555,1 51863U 22022M   23141.09857226  .00002086  00000-0  14908-3 0  9992,2 51863  53.2164 284.1985 0000943  82.6660 277.4440 15.08845469 68582,6917.864,95.437,540.381,539.076,0.0
51863.0,STARLINK-3555,PAYLOAD,2023-05-21 08:43:30,15.08831109,0.0001372,53.2144,283.0115,77.9884,282.1262,-4.4237e-05,-9.92e-06,0.0,0 STARLINK-3555,1 51863U 22022M   23141.36354291 -.00000992  00000-0 -44237-4 0  9991,2 51863  53.2144 283.0115 0001372  77.9884 282.1262 15.08831109 68621,6917.908,95.438,540.722,538.823,0.0
51863.0,STARLINK-3555,PAYLOAD,2023-05-21 15:05:03,15.08824251,0.0001006,53.2162,281.821,72.3227,287.7875,-0.00020225,-3.504e-05,0.0,0 STARLINK-3555,1 51863U 22022M   23141.62850763 -.00003504  00000-0 -20225-3 0  9997,2 51863  53.2162 281.8210 0001006  72.3227 287.7875 15.08824251 68662,6917.929,95.439,540.489,539.098,0.0
51863.0,STARLINK-3555,PAYLOAD,2023-05-21 16:40:26,15.08826289,0.00011,53.2163,281.5233,69.1095,291.0015,-0.00016566,-2.922e-05,0.0,0 STARLINK-3555,1 51863U 22022M   23141.69474745 -.00002922  00000-0 -16566-3 0  9992,2 51863  53.2163 281.5233 0001100  69.1095 291.0015 15.08826289 68675,6917.922,95.438,540.548,539.026,0.0
51863.0,STARLINK-3555,PAYLOAD,2023-05-22 02:12:44,15.08833613,0.0001195,53.2179,279.7395,73.9279,286.1844,9.7482e-06,-1.33e-06,0.0,0 STARLINK-3555,1 51863U 22022M   23142.09218639 -.00000133  00000-0  97482-5 0  9994,2 51863  53.2179 279.7395 0001195  73.9279 286.1844 15.08833613 68732,6917.9,95.438,540.592,538.938,0.0
51863.0,STARLINK-3555,PAYLOAD,2023-05-22 14:55:49,15.08849623,0.0001028,53.2167,277.3606,73.8757,286.2348,0.00029984,4.489e-05,0.0,0 STARLINK-3555,1 51863U 22022M   23142.62210008  .00004489  00000-0  29984-3 0  9992,2 51863  53.2167 277.3606 0001028  73.8757 286.2348 15.08849623 68810,6917.851,95.437,540.427,539.005,0.0
